LUME 1                  
1 43908U 18111AJ  23004.62312780  .00023733  00000+0  68704-3 0  9999
2 43908  97.1654 251.3475 0018329  73.9367 286.3894 15.35416847224207
AOBA VELOX-IV           
1 43940U 19003J   23004.60524209  .00086362  00000+0  14039-2 0  9993
2 43940  97.1060  40.9658 0013556 126.5219 233.7285 15.52294105221158
MOVE-IIB                
1 44398U 19038N   22364.13309402  .00019028  00000+0  76981-3 0  9991
2 44398  97.6498 336.2487 0018884 162.3874 197.8024 15.24592615192784
SONATE                  
1 44400U 19038Q   23004.55780706  .00009157  00000+0  46382-3 0  9997
2 44400  97.6657 339.5526 0023071 155.1486 205.0863 15.16985269193391
LUCKY-7                 
1 44406U 19038W   23002.49600738  .00008046  00000+0  39256-3 0  9998
2 44406  97.6632 338.2643 0021847 158.4573 201.7584 15.18361452193137
BEESAT 9                
1 44412U 19038AC  23004.42410038  .00017646  00000+0  79417-3 0  9991
2 44412  97.6593 340.9780 0019257 153.0705 207.1534 15.20988313193197
JAISAT-1                
1 44419U 19038F   23004.41420197  .00015686  00000+0  69786-3 0  9994
2 44419  97.6591 341.9559 0018371 149.6538 210.5765 15.21425112193567
DUCHIFAT-3              
1 44854U 19089C   23004.96648411  .00006434  00000+0  47632-3 0  9991
2 44854  36.9657 344.3268 0006253  53.1867 344.1876 15.02845933168243
EYESAT-NANO             
1 44877U 19092E   23004.79372399  .00026287  00000+0  96572-3 0  9995
2 44877  97.4576 193.4251 0011006  14.4053 345.7498 15.27841311169043
ORBITAL FACTORY 2 (OF-2)
1 45113U 19071C   23004.65509916  .00122512  00000+0  13053-2 0  9998
2 45113  51.6314 139.5070 0008148 212.2412 147.8086 15.63042696164621
M2 PATHFINDER           
1 45727U 20037E   23004.44148185  .00002381  00000+0  23599-3 0  9995
2 45727  97.7417 181.4731 0013774  88.7587 271.5255 14.92680599136800
NETSAT-4                
1 46504U 20068U   23004.62936434  .00005237  00000+0  37449-3 0  9997
2 46504  97.7435 309.4081 0012018  13.5848 346.5701 15.04841427124281
NETSAT-3                
1 46505U 20068V   23004.58436749  .00005692  00000+0  40728-3 0  9996
2 46505  97.7419 309.2469 0011291  20.8904 339.2839 15.04784155124283
NETSAT-1                
1 46506U 20068W   23004.40898519  .00004189  00000+0  30166-3 0  9990
2 46506  97.7439 308.9836 0010386  29.7523 330.4248 15.04711344124253
NETSAT-2                
1 46507U 20068X   23004.48616410  .00004975  00000+0  35708-3 0  9997
2 46507  97.7428 309.0521 0009729  39.5041 320.6883 15.04746432124216
SAI-1 NANOCONNECT-2     
1 47701U 21015C   23004.18589705  .00021610  00000+0  67197-3 0  9992
2 47701  97.4067  85.6522 0010893  99.4817 260.7657 15.33286888102908
WILDTRACKCUBE-SIMBA     
1 47941U 21022K   23004.83576731  .00006082  00000+0  38711-3 0  9999
2 47941  97.5137 265.0359 0020215 172.7830 252.3957 15.08975255 98341
BEESAT-6                
1 47957U 21022AB  23004.44659116  .00013487  00000+0  78658-3 0  9993
2 47957  97.5129 265.2883 0018833 171.7149 188.4396 15.11934683 98135
SMOG-1                  
1 47964U 21022AJ  23004.36599483  .00012837  00000+0  71705-3 0  9996
2 47964  97.5155 266.7462 0017453 159.3043 200.8899 15.13517577 97231
MMSATS-1                
1 47976U 98067SJ  23004.93287505  .00070443  00000+0  47235-3 0  9992
2 47976  51.6366  24.0770 0003424  27.1775  43.7890 15.74578386101810
BCCSAT-1                
1 48041U 21022AK  23004.34925679  .00012598  00000+0  72866-3 0  9994
2 48041  97.5153 266.0621 0014450 157.9115 202.2742 15.12313267 97168
BEESAT-5                
1 48083U 21022AM  23004.53130037  .00018577  00000+0  10647-2 0  9998
2 48083  97.5098 265.4257 0018675 171.2282 188.9278 15.12491662 97280
BEESAT-7                
1 48084U 21022AN  23004.49083405  .00013582  00000+0  78668-3 0  9999
2 48084  97.5119 265.3700 0018823 171.2670 188.8892 15.12181333 96868
BEESAT-8                
1 48085U 21022AP  23004.53125478  .00011970  00000+0  70983-3 0  9993
2 48085  97.5132 265.3267 0019119 172.0936 188.0599 15.11356431 97426
LEDSAT                  
1 49069U 21073D   23004.63862749  .00006467  00000+0  39290-3 0  9993
2 49069  97.5049  78.5355 0025162 327.3335  32.6337 15.10558327 76182
HSU-SAT1                
1 53462U 98067UB  23004.40065198  .00115057  00000+0  10171-2 0  9992
2 53462  51.6360  51.4596 0007472 331.0038  29.0542 15.67757616 22615
FUTABA                  
1 53463U 98067UC  23004.50108377  .00177780  00000+0  12506-2 0  9996
2 53463  51.6331  49.1100 0007767 341.5739  18.4977 15.73012598 22658
TUMNANOSAT              
1 53464U 98067UD  23004.39790960  .00319672  00000+0  16601-2 0  9997
2 53464  51.6333  47.6545 0008187 354.8843   5.2073 15.79492929 22665
1998-067UL              
1 54534U 98067UL  23004.56015536  .00064833  00000+0  10028-2 0  9997
2 54534  51.6416  58.5449 0003760 260.8720  99.1845 15.53451636  5215
1998-067UM              
1 54535U 98067UM  23004.57684753  .00060005  00000+0  91460-3 0  9999
2 54535  51.6447  58.4075 0003091 266.6111 209.7088 15.53891496  5219
1998-067UN              
1 54536U 98067UN  23004.58419965  .00045619  00000+0  71659-3 0  9994
2 54536  51.6446  58.4474 0003779 255.3350 225.4407 15.53175775  5175
1998-067UP              
1 54537U 98067UP  23004.58006560  .00051458  00000+0  79724-3 0  9997
2 54537  51.6444  58.4279 0003472 256.2209 220.8952 15.53505798  5211
MARIO                   
1 55123U 98067UQ  23004.59974703  .00067656  00000+0  11351-2 0  9991
2 55123  51.6430  58.8087 0003001 278.7860  81.2790 15.51171177  1021
1998-067UR              
1 55124U 98067UR  23004.85763783  .00080215  00000+0  13395-2 0  9991
2 55124  51.6428  57.5318 0002912 278.3286  81.7374 15.51228684  1052
1998-067US              
1 55125U 98067US  23004.53562475  .00056803  00000+0  95984-3 0  9993
2 55125  51.6430  59.1301 0003786 274.0027  86.0530 15.51043139  1021
1998-067UT              
1 55126U 98067UT  23004.60021144  .00049739  00000+0  84414-3 0  9991
2 55126  51.6431  58.8115 0003828 273.3803  86.6748 15.50977917  1030
1998-067UU              
1 55127U 98067UU  23004.59253830  .00590443  00000+0  79574-2 0  9992
2 55127  51.6409  58.7597 0001014 311.6408  48.4496 15.55213643   995
1998-067UV              
1 55128U 98067UV  23004.60105087  .00057348  00000+0  97796-3 0  9994
2 55128  51.6429  58.8169 0004811 255.1053 104.9404 15.50777088  1025
1998-067UW              
1 55129U 98067UW  23004.60159830  .00032781  00000+0  56903-3 0  9999
2 55129  51.6427  58.8214 0002645 241.5270 118.5453 15.50539109  1023
1998-067UX              
1 55130U 98067UX  23004.53721799  .00028811  00000+0  50203-3 0  9998
2 55130  51.6427  59.1414 0002689 240.4567 119.6154 15.50499079   969
BEIJING 1               
1 28890U 05043A   23004.82465832  .00000314  00000+0  72540-4 0  9995
2 28890  98.1381 128.8170 0013952 263.3217  96.6395 14.61576339916559
HJ-1A                   
1 33320U 08041A   23004.90577351  .00000657  00000+0  97547-4 0  9993
2 33320  97.6594  33.3229 0019765 299.0860  60.8383 14.78044187772140
HJ-1B                   
1 33321U 08041B   23004.92243810  .00001463  00000+0  20711-3 0  9990
2 33321  97.6744  37.3080 0033212 317.2098  42.6536 14.78141936772144
YAOGAN 4                
1 33446U 08061A   23004.58359977  .00000883  00000+0  13015-3 0  9998
2 33446  97.8381 303.8094 0015557 198.4518 161.6130 14.77656219759292
DEIMOS-1                
1 35681U 09041A   23004.72410149  .00000572  00000+0  97928-4 0  9996
2 35681  97.6916 210.2515 0000891  10.0886 350.0345 14.72224074721384
UK-DMC 2                
1 35683U 09041C   23004.90059173  .00000866  00000+0  14634-3 0  9992
2 35683  97.7096 172.2983 0001458  64.7615 295.3754 14.71668055721136
RISAT 1                 
1 38248U 12017A   23004.77026190  .00006330  00000+0  35772-3 0  9995
2 38248  97.5482  19.0526 0002321 298.9666  61.1332 15.13445831589271
DMC3-FM1                
1 40715U 15032A   23004.90974194  .00000748  00000+0  10005-3 0  9997
2 40715  97.8210 252.4731 0004922 212.1905 147.9017 14.82345894403135
DMC3-FM2                
1 40716U 15032B   23004.93299745  .00000755  00000+0  10083-3 0  9997
2 40716  97.8256 253.2432 0006696 218.5258 141.5490 14.82359889403149
DMC3-FM3                
1 40717U 15032C   23004.88618197  .00000749  00000+0  10012-3 0  9993
2 40717  97.8295 254.1991 0008273 217.6769 142.3869 14.82336134403139
NOAA 15                 
1 25338U 98030A   23004.77162508  .00000196  00000+0  99922-4 0  9996
2 25338  98.6248  36.4775 0011351  72.7891 287.4530 14.26216730281964
DMSP 5D-3 F15 (USA 147) 
1 25991U 99067A   23004.57300536  .00000192  00000+0  11927-3 0  9999
2 25991  99.0654   4.7280 0009828 344.5971 121.8981 14.16620308192241
DMSP 5D-3 F16 (USA 172) 
1 28054U 03048A   23004.81396279  .00000149  00000+0  10298-3 0  9994
2 28054  99.0033   1.8181 0008186 106.8155 324.0446 14.13722688991478
NOAA 18                 
1 28654U 05018A   23004.76451497  .00000251  00000+0  15885-3 0  9998
2 28654  98.9293  79.8369 0015146 121.2679 238.9979 14.12832984908493
METEOSAT-9 (MSG-2)      
1 28912U 05049B   23003.81733244  .00000133  00000+0  00000+0 0  9995
2 28912   6.4734  64.9690 0001656 188.7077 189.5128  1.00266292 62402
EWS-G1 (GOES 13)        
1 29155U 06018A   23004.53781887  .00000045  00000+0  00000+0 0  9990
2 29155   1.0941  93.0847 0006377 159.6391 106.5374  1.00278407 30746
DMSP 5D-3 F17 (USA 191) 
1 29522U 06050A   23004.79962683  .00000190  00000+0  12256-3 0  9998
2 29522  98.7602  21.0180 0010574  52.0116 308.2011 14.14156292834362
FENGYUN 3A              
1 32958U 08026A   23004.60422063  .00000148  00000+0  91257-4 0  9995
2 32958  98.5329 324.3030 0009087 155.3042 204.8571 14.18777860756749
FENGYUN 2E              
1 33463U 08066A   23004.92168848 -.00000198  00000+0  00000+0 0  9991
2 33463   6.3544  64.1065 0001588 262.8692 195.8937  1.00267867 51467
